1 14780U 84021A   11239.50000000  .00000208  00000-0  46313-4 0 00000
2 14780 098.1879 305.6506 0004083 116.4169 253.3683 14.57121038462051
